SL-14 R/B               
1 21423U 91042B   26024.73034885  .00000655  00000+0  79819-4 0  9993
2 21423  82.4914 261.4138 0017836  30.0552 330.1682 14.81786033846560
ERS-1                   
1 21574U 91050A   26024.48787568  .00000663  00000+0  22666-3 0  9990
2 21574  98.7898  41.6116 0031480 335.2350  24.7324 14.39408048809376
ARIANE 40 R/B           
1 21610U 91050F   26024.57453844  .00000634  00000+0  20242-3 0  9994
2 21610  98.2103  78.4470 0002901 185.2808 174.8353 14.42856511812637
INTERCOSMOS 25          
1 21819U 91086A   26024.81604900  .00001720  00000+0  33925-3 0  9991
2 21819  82.6091 336.5216 1486171 211.4771 138.8459 12.11876810491373
SL-8 R/B                
1 21876U 92008B   26024.79197141  .00000114  00000+0  10149-3 0  9999
2 21876  82.9287 300.4302 0033318 257.1181 120.6987 13.75968111703383
SL-8 R/B                
1 21938U 92020B   26024.46518311  .00000201  00000+0  19246-3 0  9996
2 21938  82.9305 186.5892 0030072  62.5873 351.2212 13.75541198695059
USA 81                  
1 21949U 92023A   26024.78789105  .00000388  00000+0  13619-3 0  9991
2 21949  85.0111 156.7524 0002150 114.3510 245.7907 14.32348658 88505
COSMOS 2219             
1 22219U 92076A   26024.52162114 -.00000130  00000+0 -43165-4 0  9994
2 22219  71.0613 110.4049 0020820 268.3437  91.5300 14.14081059712135
SL-16 R/B               
1 22220U 92076B   26024.70695286 -.00000130  00000+0 -41158-4 0  9997
2 22220  70.9998 281.0239 0012389 172.6178 218.6057 14.16850418715608
COSMOS 2221             
1 22236U 92080A   26024.56221676  .00004033  00000+0  35685-3 0  9992
2 22236  82.5065 321.3352 0014230 348.3171  11.7718 14.95992217774191
SL-16 R/B               
1 22285U 92093B   26024.64124419  .00000096  00000+0  73729-4 0  9993
2 22285  71.0222  96.7390 0004431 342.0908  18.0058 14.15443223706922
COSMOS 2228             
1 22286U 92094A   26024.87475097  .00003188  00000+0  27404-3 0  9994
2 22286  82.5176 279.2619 0019646  89.0444 271.3029 14.96976347769509
