CCSDS_OMM_VERS = 2.0
CREATION_DATE  = 
ORIGINATOR     = 

OBJECT_NAME    = SL-14 R/B
OBJECT_ID      = 1991-042B
CENTER_NAME    = EARTH
REF_FRAME      = TEME
TIME_SYSTEM    = UTC
MEAN_ELEMENT_THEORY = SGP/SGP4

EPOCH          = 2026-01-24T17:31:42.140640
MEAN_MOTION    = 14.81786033
ECCENTRICITY   = .00178365
INCLINATION    = 82.4914
RA_OF_ASC_NODE = 261.4138
ARG_OF_PERICENTER = 30.0552
MEAN_ANOMALY   = 330.1682

EPHEMERIS_TYPE = 0
CLASSIFICATION_TYPE = U
NORAD_CAT_ID   = 21423
ELEMENT_SET_NO = 999
REV_AT_EPOCH   = 84656
BSTAR          = .79819388E-4
MEAN_MOTION_DOT = .655E-5
MEAN_MOTION_DDOT = 0

CCSDS_OMM_VERS = 2.0
CREATION_DATE  = 
ORIGINATOR     = 

OBJECT_NAME    = ERS-1
OBJECT_ID      = 1991-050A
CENTER_NAME    = EARTH
REF_FRAME      = TEME
TIME_SYSTEM    = UTC
MEAN_ELEMENT_THEORY = SGP/SGP4

EPOCH          = 2026-01-24T11:42:32.458752
MEAN_MOTION    = 14.39408048
ECCENTRICITY   = .003148
INCLINATION    = 98.7898
RA_OF_ASC_NODE = 41.6116
ARG_OF_PERICENTER = 335.2350
MEAN_ANOMALY   = 24.7324

EPHEMERIS_TYPE = 0
CLASSIFICATION_TYPE = U
NORAD_CAT_ID   = 21574
ELEMENT_SET_NO = 999
REV_AT_EPOCH   = 80937
BSTAR          = .22666172E-3
MEAN_MOTION_DOT = .663E-5
MEAN_MOTION_DDOT = 0

CCSDS_OMM_VERS = 2.0
CREATION_DATE  = 
ORIGINATOR     = 

OBJECT_NAME    = ARIANE 40 R/B
OBJECT_ID      = 1991-050F
CENTER_NAME    = EARTH
REF_FRAME      = TEME
TIME_SYSTEM    = UTC
MEAN_ELEMENT_THEORY = SGP/SGP4

EPOCH          = 2026-01-24T13:47:20.121216
MEAN_MOTION    = 14.42856511
ECCENTRICITY   = .00029016
INCLINATION    = 98.2103
RA_OF_ASC_NODE = 78.4470
ARG_OF_PERICENTER = 185.2808
MEAN_ANOMALY   = 174.8353

EPHEMERIS_TYPE = 0
CLASSIFICATION_TYPE = U
NORAD_CAT_ID   = 21610
ELEMENT_SET_NO = 999
REV_AT_EPOCH   = 81263
BSTAR          = .20241669E-3
MEAN_MOTION_DOT = .634E-5
MEAN_MOTION_DDOT = 0

CCSDS_OMM_VERS = 2.0
CREATION_DATE  = 
ORIGINATOR     = 

OBJECT_NAME    = INTERCOSMOS 25
OBJECT_ID      = 1991-086A
CENTER_NAME    = EARTH
REF_FRAME      = TEME
TIME_SYSTEM    = UTC
MEAN_ELEMENT_THEORY = SGP/SGP4

EPOCH          = 2026-01-24T19:35:06.633600
MEAN_MOTION    = 12.11876810
ECCENTRICITY   = .14861714
INCLINATION    = 82.6091
RA_OF_ASC_NODE = 336.5216
ARG_OF_PERICENTER = 211.4771
MEAN_ANOMALY   = 138.8459

EPHEMERIS_TYPE = 0
CLASSIFICATION_TYPE = U
NORAD_CAT_ID   = 21819
ELEMENT_SET_NO = 999
REV_AT_EPOCH   = 49137
BSTAR          = .33925215E-3
MEAN_MOTION_DOT = .172E-4
MEAN_MOTION_DDOT = 0

CCSDS_OMM_VERS = 2.0
CREATION_DATE  = 
ORIGINATOR     = 

OBJECT_NAME    = SL-8 R/B
OBJECT_ID      = 1992-008B
CENTER_NAME    = EARTH
REF_FRAME      = TEME
TIME_SYSTEM    = UTC
MEAN_ELEMENT_THEORY = SGP/SGP4

EPOCH          = 2026-01-24T19:00:26.329824
MEAN_MOTION    = 13.75968111
ECCENTRICITY   = .00333186
INCLINATION    = 82.9287
RA_OF_ASC_NODE = 300.4302
ARG_OF_PERICENTER = 257.1181
MEAN_ANOMALY   = 120.6987

EPHEMERIS_TYPE = 0
CLASSIFICATION_TYPE = U
NORAD_CAT_ID   = 21876
ELEMENT_SET_NO = 999
REV_AT_EPOCH   = 70338
BSTAR          = .10149151E-3
MEAN_MOTION_DOT = .114E-5
MEAN_MOTION_DDOT = 0

CCSDS_OMM_VERS = 2.0
CREATION_DATE  = 
ORIGINATOR     = 

OBJECT_NAME    = SL-8 R/B
OBJECT_ID      = 1992-020B
CENTER_NAME    = EARTH
REF_FRAME      = TEME
TIME_SYSTEM    = UTC
MEAN_ELEMENT_THEORY = SGP/SGP4

EPOCH          = 2026-01-24T11:09:51.820704
MEAN_MOTION    = 13.75541198
ECCENTRICITY   = .00300725
INCLINATION    = 82.9305
RA_OF_ASC_NODE = 186.5892
ARG_OF_PERICENTER = 62.5873
MEAN_ANOMALY   = 351.2212

EPHEMERIS_TYPE = 0
CLASSIFICATION_TYPE = U
NORAD_CAT_ID   = 21938
ELEMENT_SET_NO = 999
REV_AT_EPOCH   = 69505
BSTAR          = .19245665E-3
MEAN_MOTION_DOT = .201E-5
MEAN_MOTION_DDOT = 0

CCSDS_OMM_VERS = 2.0
CREATION_DATE  = 
ORIGINATOR     = 

OBJECT_NAME    = USA 81
OBJECT_ID      = 1992-023A
CENTER_NAME    = EARTH
REF_FRAME      = TEME
TIME_SYSTEM    = UTC
MEAN_ELEMENT_THEORY = SGP/SGP4

EPOCH          = 2026-01-24T18:54:33.786720
MEAN_MOTION    = 14.32348658
ECCENTRICITY   = .00021501
INCLINATION    = 85.0111
RA_OF_ASC_NODE = 156.7524
ARG_OF_PERICENTER = 114.3510
MEAN_ANOMALY   = 245.7907

EPHEMERIS_TYPE = 0
CLASSIFICATION_TYPE = U
NORAD_CAT_ID   = 21949
ELEMENT_SET_NO = 999
REV_AT_EPOCH   = 8850
BSTAR          = .13618875E-3
MEAN_MOTION_DOT = .388E-5
MEAN_MOTION_DDOT = 0

CCSDS_OMM_VERS = 2.0
CREATION_DATE  = 
ORIGINATOR     = 

OBJECT_NAME    = COSMOS 2219
OBJECT_ID      = 1992-076A
CENTER_NAME    = EARTH
REF_FRAME      = TEME
TIME_SYSTEM    = UTC
MEAN_ELEMENT_THEORY = SGP/SGP4

EPOCH          = 2026-01-24T12:31:08.066496
MEAN_MOTION    = 14.14081059
ECCENTRICITY   = .00208204
INCLINATION    = 71.0613
RA_OF_ASC_NODE = 110.4049
ARG_OF_PERICENTER = 268.3437
MEAN_ANOMALY   = 91.5300

EPHEMERIS_TYPE = 0
CLASSIFICATION_TYPE = U
NORAD_CAT_ID   = 22219
ELEMENT_SET_NO = 999
REV_AT_EPOCH   = 71213
BSTAR          = -.43164937E-4
MEAN_MOTION_DOT = -.13E-5
MEAN_MOTION_DDOT = 0

CCSDS_OMM_VERS = 2.0
CREATION_DATE  = 
ORIGINATOR     = 

OBJECT_NAME    = SL-16 R/B
OBJECT_ID      = 1992-076B
CENTER_NAME    = EARTH
REF_FRAME      = TEME
TIME_SYSTEM    = UTC
MEAN_ELEMENT_THEORY = SGP/SGP4

EPOCH          = 2026-01-24T16:58:00.727104
MEAN_MOTION    = 14.16850418
ECCENTRICITY   = .00123895
INCLINATION    = 70.9998
RA_OF_ASC_NODE = 281.0239
ARG_OF_PERICENTER = 172.6178
MEAN_ANOMALY   = 218.6057

EPHEMERIS_TYPE = 0
CLASSIFICATION_TYPE = U
NORAD_CAT_ID   = 22220
ELEMENT_SET_NO = 999
REV_AT_EPOCH   = 71560
BSTAR          = -.41158138E-4
MEAN_MOTION_DOT = -.13E-5
MEAN_MOTION_DDOT = 0

CCSDS_OMM_VERS = 2.0
CREATION_DATE  = 
ORIGINATOR     = 

OBJECT_NAME    = COSMOS 2221
OBJECT_ID      = 1992-080A
CENTER_NAME    = EARTH
REF_FRAME      = TEME
TIME_SYSTEM    = UTC
MEAN_ELEMENT_THEORY = SGP/SGP4

EPOCH          = 2026-01-24T13:29:35.528064
MEAN_MOTION    = 14.95992217
ECCENTRICITY   = .001423
INCLINATION    = 82.5065
RA_OF_ASC_NODE = 321.3352
ARG_OF_PERICENTER = 348.3171
MEAN_ANOMALY   = 11.7718

EPHEMERIS_TYPE = 0
CLASSIFICATION_TYPE = U
NORAD_CAT_ID   = 22236
ELEMENT_SET_NO = 999
REV_AT_EPOCH   = 77419
BSTAR          = .35685016E-3
MEAN_MOTION_DOT = .4033E-4
MEAN_MOTION_DDOT = 0

CCSDS_OMM_VERS = 2.0
CREATION_DATE  = 
ORIGINATOR     = 

OBJECT_NAME    = SL-16 R/B
OBJECT_ID      = 1992-093B
CENTER_NAME    = EARTH
REF_FRAME      = TEME
TIME_SYSTEM    = UTC
MEAN_ELEMENT_THEORY = SGP/SGP4

EPOCH          = 2026-01-24T15:23:23.498016
MEAN_MOTION    = 14.15443223
ECCENTRICITY   = .00044319
INCLINATION    = 71.0222
RA_OF_ASC_NODE = 96.7390
ARG_OF_PERICENTER = 342.0908
MEAN_ANOMALY   = 18.0058

EPHEMERIS_TYPE = 0
CLASSIFICATION_TYPE = U
NORAD_CAT_ID   = 22285
ELEMENT_SET_NO = 999
REV_AT_EPOCH   = 70692
BSTAR          = .73729313E-4
MEAN_MOTION_DOT = .96E-6
MEAN_MOTION_DDOT = 0

CCSDS_OMM_VERS = 2.0
CREATION_DATE  = 
ORIGINATOR     = 

OBJECT_NAME    = COSMOS 2228
OBJECT_ID      = 1992-094A
CENTER_NAME    = EARTH
REF_FRAME      = TEME
TIME_SYSTEM    = UTC
MEAN_ELEMENT_THEORY = SGP/SGP4

EPOCH          = 2026-01-24T20:59:38.483808
MEAN_MOTION    = 14.96976347
ECCENTRICITY   = .00196466
INCLINATION    = 82.5176
RA_OF_ASC_NODE = 279.2619
ARG_OF_PERICENTER = 89.0444
MEAN_ANOMALY   = 271.3029

EPHEMERIS_TYPE = 0
CLASSIFICATION_TYPE = U
NORAD_CAT_ID   = 22286
ELEMENT_SET_NO = 999
REV_AT_EPOCH   = 76950
BSTAR          = .27403575E-3
MEAN_MOTION_DOT = .3188E-4
MEAN_MOTION_DDOT = 0

